NORAD_CAT_ID,OBJECT_NAME,OBJECT_TYPE,EPOCH,MEAN_MOTION,ECCENTRICITY,INCLINATION,RA_OF_ASC_NODE,ARG_OF_PERICENTER,MEAN_ANOMALY,BSTAR,MEAN_MOTION_DOT,MEAN_MOTION_DDOT,TLE_LINE0,TLE_LINE1,TLE_LINE2,SEMIMAJOR_AXIS,PERIOD,APOGEE,PERIGEE,DECAYED
53993.0,STARLINK-5121,PAYLOAD,2023-07-04 12:18:01,15.0883914,0.0001103,53.2179,284.5718,101.9295,258.1821,4.7846e-05,4.74e-06,0.0,0 STARLINK-5121,1 53993U 22125AF  23185.51252020  .00000474  00000-0  47846-4 0  9995,2 53993  53.2179 284.5718 0001103 101.9295 258.1821 15.08839140 41781,6917.883,95.438,540.511,538.985,0.0
53993.0,STARLINK-5121,PAYLOAD,2023-07-05 13:44:11,15.08841271,0.0001076,53.218,279.8147,93.3042,266.8073,4.2072e-05,3.82e-06,0.0,0 STARLINK-5121,1 53993U 22125AF  23186.57236068  .00000382  00000-0  42072-4 0  9990,2 53993  53.2180 279.8147 0001076  93.3042 266.8073 15.08841271 41940,6917.877,95.437,540.486,538.997,0.0
53993.0,STARLINK-5121,PAYLOAD,2023-07-06 15:10:21,15.0884809,0.0001093,53.2179,275.0569,87.0437,273.068,0.00014499,2.021e-05,0.0,0 STARLINK-5121,1 53993U 22125AF  23187.63219641  .00002021  00000-0  14499-3 0  9999,2 53993  53.2179 275.0569 0001093  87.0437 273.0680 15.08848090 42100,6917.856,95.437,540.477,538.965,0.0
53993.0,STARLINK-5121,PAYLOAD,2023-07-07 10:14:59,15.08843209,0.0001103,53.2176,271.489,84.3162,275.7956,0.00013777,1.906e-05,0.0,0 STARLINK-5121,1 53993U 22125AF  23188.42707992  .00001906  00000-0  13777-3 0  9997,2 53993  53.2176 271.4890 0001103  84.3162 275.7956 15.08843209 42226,6917.871,95.437,540.499,538.973,0.0
53993.0,STARLINK-5121,PAYLOAD,2023-07-08 16:27:18,15.08849844,0.0001068,53.2172,265.8379,95.6853,264.426,7.82e-05,9.57e-06,0.0,0 STARLINK-5121,1 53993U 22125AF  23189.68563339  .00000957  00000-0  78200-4 0  9999,2 53993  53.2172 265.8379 0001068  95.6853 264.4260 15.08849844 42418,6917.85,95.437,540.454,538.976,0.0
53993.0,STARLINK-5121,PAYLOAD,2023-07-09 11:31:57,15.0883578,0.0001174,53.2175,262.2711,88.0062,272.1064,-1.1178e-05,-4.66e-06,0.0,0 STARLINK-5121,1 53993U 22125AF  23190.48052615 -.00000466  00000-0 -11178-4 0  9997,2 53993  53.2175 262.2711 0001174  88.0062 272.1064 15.08835780 42533,6917.893,95.438,540.57,538.946,0.0
53993.0,STARLINK-5121,PAYLOAD,2023-07-10 11:22:44,15.08841291,0.0001037,53.2169,257.8096,92.2866,267.8245,0.00010252,1.344e-05,0.0,0 STARLINK-5121,1 53993U 22125AF  23191.47412102  .00001344  00000-0  10252-3 0  9993,2 53993  53.2169 257.8096 0001037  92.2866 267.8245 15.08841291 42681,6917.876,95.437,540.459,539.024,0.0
53993.0,STARLINK-5121,PAYLOAD,2023-07-11 15:59:40,15.08842377,0.0001121,53.2169,252.4573,88.0349,272.0771,0.00016417,2.326e-05,0.0,0 STARLINK-5121,1 53993U 22125AF  23192.66644239  .00002326  00000-0  16417-3 0  9993,2 53993  53.2169 252.4573 0001121  88.0349 272.0771 15.08842377 42863,6917.873,95.437,540.514,538.963,0.0
53993.0,STARLINK-5121,PAYLOAD,2023-07-12 06:18:09,15.08840833,0.000113,53.2168,249.7802,84.7602,275.3519,3.8201e-05,3.2e-06,0.0,0 STARLINK-5121,1 53993U 22125AF  23193.26260732  .00000320  00000-0  38201-4 0  9990,2 53993  53.2168 249.7802 0001130  84.7602 275.3519 15.08840833 42952,6917.878,95.438,540.525,538.961,0.0
53993.0,STARLINK-5121,PAYLOAD,2023-07-13 12:30:28,15.08840552,0.0001199,53.217,244.1298,87.3198,272.7931,6.4192e-05,7.34e-06,0.0,0 STARLINK-5121,1 53993U 22125AF  23194.52116737  .00000734  00000-0  64192-4 0  9992,2 53993  53.2170 244.1298 0001199  87.3198 272.7931 15.08840552 43146,6917.879,95.438,540.573,538.914,0.0
53993.0,STARLINK-5121,PAYLOAD,2023-07-15 02:39:44,15.08841133,0.0001133,53.2164,236.9932,86.858,273.2542,0.00011369,1.522e-05,0.0,0 STARLINK-5121,1 53993U 22125AF  23196.11092769  .00001522  00000-0  11369-3 0  9990,2 53993  53.2164 236.9932 0001133  86.8580 273.2542 15.08841133 43386,6917.877,95.437,540.526,538.958,0.0
53993.0,STARLINK-5121,PAYLOAD,2023-07-16 02:30:31,15.08835451,0.0001154,53.2159,232.5331,84.1953,275.9171,6.1747e-05,6.95e-06,0.0,0 STARLINK-5121,1 53993U 22125AF  23197.10453302  .00000695  00000-0  61747-4 0  9990,2 53993  53.2159 232.5331 0001154  84.1953 275.9171 15.08835451 43533,6917.894,95.438,540.558,538.961,0.0
53993.0,STARLINK-5121,PAYLOAD,2023-07-17 08:42:50,15.08845214,0.0001224,53.2166,226.884,77.1674,282.9455,5.0789e-05,5.21e-06,0.0,0 STARLINK-5121,1 53993U 22125AF  23198.36308871  .00000521  00000-0  50789-4 0  9991,2 53993  53.2166 226.8840 0001224  77.1674 282.9455 15.08845214 43724,6917.864,95.437,540.576,538.883,0.0
53993.0,STARLINK-5121,PAYLOAD,2023-07-18 06:58:15,15.08838222,0.0001183,53.2166,222.7205,74.4589,285.6534,0.00011258,1.504e-05,0.0,0 STARLINK-5121,1 53993U 22125AF  23199.29045155  .00001504  00000-0  11258-3 0  9996,2 53993  53.2166 222.7205 0001183  74.4589 285.6534 15.08838222 43867,6917.886,95.438,540.569,538.932,0.0
53993.0,STARLINK-5121,PAYLOAD,2023-07-19 09:59:48,15.08838433,0.0001179,53.2165,217.665,71.8652,288.2469,6.1955e-06,-1.89e-06,0.0,0 STARLINK-5121,1 53993U 22125AF  23200.41653511 -.00000189  00000-0  61955-5 0  9994,2 53993  53.2165 217.6650 0001179  71.8652 288.2469 15.08838433 44030,6917.885,95.438,540.566,538.935,0.0
53993.0,STARLINK-5121,PAYLOAD,2023-07-20 11:25:58,15.08837172,0.0001154,53.2165,212.9066,77.9497,282.1624,5.0708e-05,5.19e-06,0.0,0 STARLINK-5121,1 53993U 22125AF  23201.47637548  .00000519  00000-0  50708-4 0  9992,2 53993  53.2165 212.9066 0001154  77.9497 282.1624 15.08837172 44198,6917.889,95.438,540.552,538.956,0.0
53993.0,STARLINK-5121,PAYLOAD,2023-07-24 10:49:07,15.0883977,0.0001406,53.2162,195.066,70.695,289.4194,3.2613e-05,2.31e-06,0.0,0 STARLINK-5121,1 53993U 22125AF  23205.45077629  .00000231  00000-0  32613-4 0  9998,2 53993  53.2162 195.0660 0001406  70.6950 289.4194 15.08839770 44716,6917.881,95.438,540.719,538.773,0.0
53993.0,STARLINK-5121,PAYLOAD,2023-07-25 10:39:54,15.08839528,0.0001416,53.2144,190.6073,74.6562,285.4587,2.1312e-05,5.1e-07,0.0,0 STARLINK-5121,1 53993U 22125AF  23206.44437730  .00000051  00000-0  21312-4 0  9995,2 53993  53.2144 190.6073 0001416  74.6562 285.4587 15.08839528 44868,6917.882,95.438,540.726,538.767,0.0
53993.0,STARLINK-5121,PAYLOAD,2023-07-26 07:19:55,15.08835253,0.0001391,53.2143,186.741,81.4447,278.6702,4.4502e-05,4.2e-06,0.0,0 STARLINK-5121,1 53993U 22125AF  23207.30550084  .00000420  00000-0  44502-4 0  9995,2 53993  53.2143 186.7410 0001391  81.4447 278.6702 15.08835253 44996,6917.895,95.438,540.722,538.798,0.0
53993.0,STARLINK-5121,PAYLOAD,2023-07-27 00:49:09,15.08851539,0.0001338,53.2163,183.4692,91.09,269.0245,-0.00011101,-2.055e-05,0.0,0 STARLINK-5121,1 53993U 22125AF  23208.03413689 -.00002055  00000-0 -11101-3 0  9991,2 53993  53.2163 183.4692 0001338  91.0900 269.0245 15.08851539 45189,6917.845,95.437,540.636,538.785,0.0
53993.0,STARLINK-5121,PAYLOAD,2023-07-27 08:46:04,15.08856611,0.0001293,53.2165,181.9818,93.226,266.888,-0.0001155,-2.126e-05,0.0,0 STARLINK-5121,1 53993U 22125AF  23208.36533132 -.00002126  00000-0 -11550-3 0  9990,2 53993  53.2165 181.9818 0001293  93.2260 266.8880 15.08856611 45150,6917.83,95.437,540.589,538.8,0.0
53993.0,STARLINK-5121,PAYLOAD,2023-07-28 07:01:30,15.08833683,0.0001312,53.2168,177.8183,105.0812,255.0326,-9.2255e-05,-1.756e-05,0.0,0 STARLINK-5121,1 53993U 22125AF  23209.29271063 -.00001756  00000-0 -92255-4 0  9995,2 53993  53.2168 177.8183 0001312 105.0812 255.0326 15.08833683 45372,6917.9,95.438,540.672,538.857,0.0
53993.0,STARLINK-5121,PAYLOAD,2023-07-29 02:06:07,15.08842077,0.0001245,53.217,174.2497,97.3567,262.7566,3.1115e-05,2.07e-06,0.0,0 STARLINK-5121,1 53993U 22125AF  23210.08758340  .00000207  00000-0  31115-4 0  9998,2 53993  53.2170 174.2497 0001245  97.3567 262.7566 15.08842077 45490,6917.874,95.437,540.6,538.878,0.0
53993.0,STARLINK-5121,PAYLOAD,2023-07-30 06:43:03,15.08839661,0.0001151,53.2171,168.8948,103.9068,256.2052,9.0648e-05,1.155e-05,0.0,0 STARLINK-5121,1 53993U 22125AF  23211.27990405  .00001155  00000-0  90648-4 0  9999,2 53993  53.2171 168.8948 0001151 103.9068 256.2052 15.08839661 45670,6917.881,95.438,540.543,538.95,0.0
53993.0,STARLINK-5121,PAYLOAD,2023-07-31 14:30:46,15.08843603,0.0001165,53.2171,162.9491,98.3254,261.787,1.1765e-05,-1.01e-06,0.0,0 STARLINK-5121,1 53993U 22125AF  23212.60470431 -.00000101  00000-0  11765-4 0  9993,2 53993  53.2171 162.9491 0001165  98.3254 261.7870 15.08843603 45879,6917.869,95.437,540.54,538.928,0.0
53993.0,STARLINK-5121,PAYLOAD,2023-08-02 01:29:16,15.08828051,0.0001395,53.218,156.4045,110.9371,249.1771,7.5059e-05,9.06e-06,0.0,0 STARLINK-5121,1 53993U 22125AF  23214.06199172  .00000906  00000-0  75059-4 0  9993,2 53993  53.2180 156.4045 0001395 110.9371 249.1771 15.08828051 46093,6917.917,95.438,540.747,538.817,0.0
53993.0,STARLINK-5121,PAYLOAD,2023-08-02 06:15:25,15.0883804,0.0001191,53.2181,155.5151,94.5755,265.5374,2.0839e-05,4.4e-07,0.0,0 STARLINK-5121,1 53993U 22125AF  23214.26070951  .00000044  00000-0  20839-4 0  9997,2 53993  53.2181 155.5151 0001191  94.5755 265.5374 15.08838040 46123,6917.886,95.438,540.575,538.927,0.0
53993.0,STARLINK-5121,PAYLOAD,2023-08-04 01:10:50,15.08836438,0.0001095,53.2169,147.4851,120.7601,239.35,-2.0536e-05,-6.15e-06,0.0,0 STARLINK-5121,1 53993U 22125AF  23216.04919648 -.00000615  00000-0 -20536-4 0  9990,2 53993  53.2169 147.4851 0001095 120.7601 239.3500 15.08836438 46399,6917.891,95.438,540.514,538.999,0.0
53993.0,STARLINK-5121,PAYLOAD,2023-08-05 02:37:00,15.08850263,9.63e-05,53.2168,142.7296,77.5656,282.5444,6.9778e-05,8.23e-06,0.0,0 STARLINK-5121,1 53993U 22125AF  23217.10902974  .00000823  00000-0  69778-4 0  9992,2 53993  53.2168 142.7296 0000963  77.5656 282.5444 15.08850263 46558,6917.849,95.437,540.38,539.048,0.0
53993.0,STARLINK-5121,PAYLOAD,2023-08-06 04:03:09,15.08855469,9.84e-05,53.2171,137.9703,93.6897,266.4207,0.00021162,3.083e-05,0.0,0 STARLINK-5121,1 53993U 22125AF  23218.16885931  .00003083  00000-0  21162-3 0  9997,2 53993  53.2171 137.9703 0000984  93.6897 266.4207 15.08855469 46719,6917.833,95.437,540.379,539.017,0.0
